KUIPER-00008            
1 63724U 25088A   25300.39981029  .00001357  00000+0  13044-3 0  9996
2 63724  51.8921 334.6895 0011440  18.7592 341.3798 14.99594002 28064
KUIPER-00009            
1 63725U 25088B   25300.40983307  .00002470  00000+0  35121-3 0  9997
2 63725  51.9022 335.9561 0012960  20.2462 339.9012 14.80131990 28047
KUIPER-00010            
1 63726U 25088C   25300.50002315  .00017584  00000+0  23197-2 0  9991
2 63726  51.9009 312.0445 0012458  65.5430  87.3643 14.80065760  4611
KUIPER-00011            
1 63727U 25088D   25300.36189365 -.00001305  00000+0 -14140-3 0  9992
2 63727  51.9019 320.2369 0014007  38.0015 322.1932 14.79932910 28014
KUIPER-00012            
1 63728U 25088E   25300.28366422  .00012583  00000+0  59146-3 0  9998
2 63728  51.8686 308.4843 0012065  29.9485 330.2182 15.19883118 28120
KUIPER-00013            
1 63729U 25088F   25300.41045940  .00002832  00000+0  40024-3 0  9994
2 63729  51.9032 337.4389 0007527 313.0858  46.9474 14.79952384 27831
KUIPER-00014            
1 63730U 25088G   25300.40882787 -.00007846  00000+0 -10024-2 0  9991
2 63730  51.9033 338.4148 0008617  17.7865 342.3397 14.79848883 27638
KUIPER-00015            
1 63731U 25088H   25300.43810889  .00003360  00000+0  45262-3 0  9997
2 63731  51.9003 349.8705 0010096 359.4699   0.6252 14.81505105 27933
